440P/Kobayashi,e,12.3561,328.7877,183.3199,8.582280,0.0392013,0.76104803,55.9494,02/25.0/2026,2000,g 15.5,4.0
# From MPC191634
441P/PANSTARRS,e,2.5746,143.5871,178.8320,4.130738,0.1173985,0.19436702,19.8184,02/25.0/2026,2000,g 13.5,4.0
# From MPC191634
442P/McNaught,e,6.0591,31.8667,310.6010,4.949406,0.0895106,0.53278726,115.2891,02/25.0/2026,2000,g 13.5,4.0
# From MPC191635
443P/PANSTARRS-Christensen,e,19.8882,108.9322,145.0206,4.124226,0.1176767,0.28278222,145.3608,02/25.0/2026,2000,g 13.5,4.0
# From MPC191635
444P/WISE-PANSTARRS,e,22.6724,88.1976,172.7646,3.480573,0.1517847,0.55430545,203.5525,02/25.0/2026,2000,g 17.0,4.0
# From MPC191635
445P/Lemmon-PANSTARRS,e,1.0894,126.5999,213.0688,4.043380,0.1212236,0.41470185,156.2704,02/25.0/2026,2000,g 15.0,4.0
# From MPC191635
446P/McNaught,e,16.6544,336.2836,344.5897,4.556333,0.1013400,0.64706734,138.7475,02/25.0/2026,2000,g 16.5,4.0
# From MPC191635
447P/Sheppard-Tholen,e,7.4418,302.6390,97.3064,5.622022,0.0739376,0.17687492,95.4598,02/25.0/2026,2000,g 12.0,4.0
# From MPC191635
448P/PANSTARRS,e,12.1424,161.7470,218.8058,3.637182,0.1420877,0.41783473,180.2155,02/25.0/2026,2000,g 16.0,4.0
# From MPC191635
449P/Leonard,e,15.4675,242.5156,176.7856,3.599487,0.1443255,0.47965930,276.6824,02/25.0/2026,2000,g 16.0,4.0
# From MPC191635
450P/LONEOS,e,11.0181,123.8014,27.9441,7.777564,0.0454400,0.30732381,342.5191,02/25.0/2026,2000,g  6.5,4.0
# From MPC191635
451P/Christensen,e,26.4880,300.8611,186.8341,6.353038,0.0615505,0.55931132,72.9245,02/25.0/2026,2000,g 13.5,4.0
# From MPC191635
452P/Sheppard-Jewitt,e,6.4225,123.6594,37.1392,7.315097,0.0498166,0.42883838,51.5898,02/25.0/2026,2000,g  9.0,4.0
# From MPC191636
453P/WISE-Lemmon,e,27.0514,42.8820,70.9363,5.469359,0.0770547,0.58316786,83.9499,02/25.0/2026,2000,g 14.0,4.0
# From MPC191636
454P/PANSTARRS,e,19.8047,54.5865,20.2364,4.212657,0.1139908,0.36119251,149.2532,02/25.0/2026,2000,g 14.0,4.0
# From MPC191636
455P/PANSTARRS,e,14.1335,146.1733,237.5341,3.154034,0.1759562,0.30416380,192.9303,02/25.0/2026,2000,g 17.0,4.0
# From MPC191636
456P/PANSTARRS,e,16.9651,243.1367,232.9752,3.168492,0.1747532,0.11556869,55.2695,02/25.0/2026,2000,g 13.5,4.0
# From MPC191636
457P/Lemmon-PANSTARRS,e,5.2257,175.9618,104.3045,2.645149,0.2291020,0.11822940,126.9397,02/25.0/2026,2000,g 15.5,4.0
# From MPC191636
458P/Jahn,e,13.6217,1.5420,104.9909,3.859770,0.1299756,0.31722045,157.6534,02/25.0/2026,2000,g 14.0,4.0
# From MPC191636
459P/Catalina,e,7.1725,256.9839,205.2441,3.240531,0.1689584,0.57785626,185.7017,02/25.0/2026,2000,g 15.5,4.0
# From MPC191636
460P/PANSTARRS,e,18.9001,180.5166,351.9278,3.027841,0.1870701,0.66431924,320.9790,02/25.0/2026,2000,g 21.0,4.0
# From MPC191636
461P/WISE,e,18.3942,194.3699,174.8221,3.144890,0.1767242,0.56938468,283.6317,02/25.0/2026,2000,g 18.5,4.0
# From MPC191636
462P/LONEOS-PANSTARRS,e,7.0643,322.6083,4.0937,4.854143,0.0921584,0.57899258,120.2499,02/25.0/2026,2000,g 17.0,4.0
# From MPC191637
463P/NEOWISE,e,29.2942,283.2150,216.3481,2.973898,0.1921830,0.82602751,204.2687,02/25.0/2026,2000,g 18.0,4.0
# From MPC191637
464P/PANSTARRS,e,21.6735,309.5780,267.4721,4.682646,0.0972673,0.28082230,106.3784,02/25.0/2026,2000,g 10.5,4.0
# From MPC191637
465P/Hill,e,25.8627,217.9177,140.9550,6.001770,0.0670325,0.61289179,68.6111,02/25.0/2026,2000,g 12.5,4.0
# From MPC191637
466P/PANSTARRS,e,16.8856,114.9799,196.4961,3.939512,0.1260493,0.47512862,133.5918,02/25.0/2026,2000,g 14.0,4.0
# From MPC191637
467P/LINEAR-Grauer,e,2.4795,43.2617,267.0538,5.823348,0.0701366,0.05415207,83.6121,02/25.0/2026,2000,g  9.0,4.0
# From MPC191637
468P/SidingSpring,e,50.4568,356.1327,322.5404,7.112882,0.0519560,0.44463714,42.9801,02/25.0/2026,2000,g 11.5,4.0
# From MPC191637
469P/PANSTARRS,e,20.1704,178.9635,43.4946,4.344184,0.1088534,0.30826903,8.5572,02/25.0/2026,2000,g 13.5,4.0
# From MPC191637
470P/PANSTARRS,e,8.8440,246.1566,151.6300,4.461106,0.1046021,0.38919121,83.8542,02/25.0/2026,2000,g 15.5,4.0
# From MPC191637
471P/LINEAR-Lemmon,e,4.7967,283.3091,94.7026,5.685455,0.0727036,0.62752534,58.0506,02/25.0/2026,2000,g 12.0,4.0
# From MPC191637
472P/NEAT-LINEAR,e,10.8282,205.7930,218.7838,7.757476,0.0456167,0.56354150,26.9847,02/25.0/2026,2000,g 10.5,4.0
# From MPC191638
473P/NEAT,e,56.8781,22.1915,42.9511,7.973911,0.0437721,0.82354466,31.9454,02/25.0/2026,2000,g 13.5,4.0
# From MPC191638
474P/Hogan,e,1.0968,26.7523,11.2697,3.131122,0.1778910,0.18780987,169.9901,02/25.0/2026,2000,g 15.5,4.0
# From MPC191638
475P/Spacewatch-LINEAR,e,14.5244,147.3496,40.4364,7.322119,0.0497449,0.44314252,31.4955,02/25.0/2026,2000,g 11.0,4.0
# From MPC191638
476P/PANSTARRS,e,19.0052,57.0494,46.7557,4.774879,0.0944627,0.34575633,46.8977,02/25.0/2026,2000,g 12.5,4.0
# From MPC191638
477P/PANSTARRS,e,8.9140,59.1370,305.8473,3.001348,0.1895525,0.41760797,150.0509,02/25.0/2026,2000,g 14.5,4.0
# From MPC191638
478P/ATLAS,e,12.5255,127.2578,13.2845,3.648858,0.1414062,0.34383210,93.8473,02/25.0/2026,2000,g 13.5,4.0
# From MPC191638
479P/Elenin,e,15.3985,295.8279,263.4951,5.622719,0.0739238,0.77903442,48.8378,02/25.0/2026,2000,g 15.0,4.0
# From MPC191638
480P/PANSTARRS,e,13.7146,229.9858,214.4946,4.612457,0.0994960,0.24615232,103.2740,02/25.0/2026,2000,g 12.0,4.0
# From MPC191638
481P/Lemmon-PANSTARRS,e,6.0826,93.5511,356.8658,4.683458,0.0972421,0.34333988,93.5031,02/25.0/2026,2000,g 13.5,4.0
# From MPC191638
482P/PANSTARRS,e,24.4899,126.0702,339.7576,3.757587,0.1353133,0.49231288,135.1392,02/25.0/2026,2000,g 13.5,4.0
# From MPC191639
483P/PANSTARRS,e,14.1756,198.8860,49.7869,3.194288,0.1726406,0.22151714,251.9428,02/25.0/2026,2000,g 16.5,4.0
# From MPC186638
483P-A/PANSTARRS,e,14.1756,198.8861,49.7871,3.194288,0.1726406,0.22151753,251.9424,02/25.0/2026,2000,g 13.5,4.0
# From MPC185666
483P-B/PANSTARRS,e,14.1764,198.8855,49.7779,3.194203,0.1726475,0.22146106,251.9789,02/25.0/2026,2000,g 17.0,4.0
# From MPC191639
484P/Spacewatch,e,14.4744,265.3630,240.8489,3.755846,0.1354074,0.43320286,259.1890,02/25.0/2026,2000,g 16.0,4.0
# From MPC191639
485P/Sheppard-Tholen,e,10.0159,261.6463,196.1649,6.853750,0.0549303,0.41713171,50.2321,02/25.0/2026,2000,g 13.0,4.0
# From MPC191639
486P/Leonard,e,2.2097,219.0231,93.9339,3.626699,0.1427042,0.36333901,46.6939,02/25.0/2026,2000,g 14.5,4.0
# From MPC191639
487P/SidingSpring,e,39.3663,49.2005,0.8370,5.159902,0.0840895,0.64827447,41.4124,02/25.0/2026,2000,g 13.5,4.0
# From MPC191639
488P/NEAT-PANSTARRS,e,11.5458,323.1680,3.0726,3.766489,0.1348339,0.55137520,86.9563,02/25.0/2026,2000,g 16.5,4.0
# From MPEC 2024-Q14
489P/Denning,e,4.0260,20.5972,109.4184,4.424213,0.1059132,0.64709068,8.7589,02/25.0/2026,2000,g 15.5,4.0
# From MPC191639
490P/ATLAS,e,12.2683,307.5808,332.6039,3.031047,0.1867734,0.64675098,96.1864,02/25.0/2026,2000,g 21.0,4.0
# From MPC191639
491P/Spacewatch-PANSTARRS,e,9.3671,311.6836,298.8248,5.012476,0.0878265,0.25871668,47.1909,02/25.0/2026,2000,g  9.5,4.0
# From MPC191639
492P/LINEAR,e,11.4008,11.3053,40.9794,5.757443,0.0713444,0.69044287,41.7112,02/25.0/2026,2000,g 15.0,4.0
# From MPC191639
493P/LONEOS,e,24.1072,1.0680,83.2490,7.181156,0.0512168,0.46764284,2.1437,02/25.0/2026,2000,g 12.0,2.0
# From MPC191640
494P/PANSTARRS,e,7.7896,245.0441,48.8902,3.794397,0.1333491,0.35658134,84.6929,02/25.0/2026,2000,g 16.0,4.0
# From MPC191640
495P/Christensen,e,26.3570,291.6125,141.3357,4.767033,0.0946961,0.27423469,11.8984,02/25.0/2026,2000,g 11.5,4.0
# From MPC191640
496P/Hill,e,14.8138,63.5880,42.2576,6.099963,0.0654204,0.73420214,23.0096,02/25.0/2026,2000,g 14.0,4.0
# From MPC191640
497P/Spacewatch-PANSTARRS,e,10.4374,40.3575,32.3802,5.608949,0.0741962,0.63011547,27.8086,02/25.0/2026,2000,g 17.5,4.0
# From MPC191640
498P/LINEAR,e,14.4827,279.2301,179.0996,4.593312,0.1001187,0.57224720,43.3594,02/25.0/2026,2000,g 14.7,4.0
# From MPC191640
499P/Catalina,e,24.5843,139.3026,2.5725,3.018332,0.1879548,0.69151155,67.2101,02/25.0/2026,2000,g 18.5,4.0
# From MPC191640
500P/PANSTARRS,e,2.3015,111.5263,46.7181,3.416712,0.1560600,0.37599960,51.4956,02/25.0/2026,2000,g 16.0,4.0
# From MPC191640
501P/Rankin,e,10.0476,139.7848,53.6838,2.227788,0.2964104,0.69862368,202.0470,02/25.0/2026,2000,g 21.5,4.0
# From MPC191640
502P/NEAT,e,11.3990,264.4807,37.7178,7.994148,0.0436060,0.47094224,8.9008,02/25.0/2026,2000,g  8.5,4.0
# From MPC191640
503P/PANSTARRS,e,10.5746,268.5811,17.9385,3.657828,0.1408864,0.48129267,15.7036,02/25.0/2026,2000,g 15.0,4.0
# From MPC191641
504P/WISE-PANSTARRS,e,8.8059,221.1183,308.5476,3.745471,0.1359704,0.40616209,43.7686,02/25.0/2026,2000,g 14.3,4.0
# From MPC191641
505P/Palomar,e,11.3883,111.9417,143.9444,4.113551,0.1181351,0.31078684,4.5340,02/25.0/2026,2000,g 14.9,4.0
# From MPC191641
506P/WISE-LINEAR,e,13.6575,325.5961,354.6680,5.587074,0.0746324,0.48198776,68.1865,02/25.0/2026,2000,g 12.7,4.0
# From MPC191641
507P/Lemmon,e,17.0791,233.0585,107.7678,6.206829,0.0637381,0.56828148,75.3992,02/25.0/2026,2000,g 12.6,4.0
# From MPC191641
508P/McNaught,e,31.7330,268.8287,338.8704,3.574603,0.1458352,0.56941298,33.3612,02/25.0/2026,2000,g 16.5,4.0
# From MPC191641
509P/Catalina,e,8.6022,275.2108,180.0647,7.051484,0.0526361,0.47628238,358.8103,02/25.0/2026,2000,g 10.0,4.0
# From MPC191641
510P/Boattini,e,8.2272,280.6642,86.6906,6.482025,0.0597225,0.24788786,348.2797,02/25.0/2026,2000,g  9.5,4.0
# From MPC191641
511P/PANSTARRS,e,14.7852,271.0278,81.2458,3.010299,0.1887077,0.23724109,43.1962,02/25.0/2026,2000,g 17.1,4.0
# From MPC191641
512P/PANSTARRS,e,12.5689,73.7392,308.7224,5.697313,0.0724768,0.15723929,339.4870,02/25.0/2026,2000,g 10.0,4.0
# From MPC191641
513P/Broughton,e,21.3855,56.9971,304.8761,7.254920,0.0504377,0.55150588,12.9216,02/25.0/2026,2000,g 11.0,4.0
# From MPC191642
514P/Lemmon-PANSTARRS,e,6.5050,321.6029,89.4547,4.548631,0.1015975,0.36000540,9.4473,02/25.0/2026,2000,g 14.0,4.0
# From MPC107687
1I/`Oumuamua,h,09/09.4886/2017,122.6778,24.5997,241.6845,1.199252,0.255240,2000,23.0,2.0
# From MPEC 2025-R69
2I/Borisov,h,12/09.0572/2019,44.2624,307.8024,209.2911,3.345952,1.997724,2000,11.0,4.0
